STARLINK-36056          
1 67206U 25304Q   26004.83335648 -.00033721  00000+0 -54796-3 0  9998
2 67206  69.9999 342.3594 0003654 263.1333 232.4582 15.52504596  4151
STARLINK-36225          
1 67207U 25304R   26004.83335648 -.00058709  00000+0 -95796-3 0  9997
2 67207  69.9996 342.3563 0003198 264.7930 232.7173 15.52538080  4185
STARLINK-36265          
1 67208U 25304S   26004.83335648  .00172668  00000+0  27623-2 0  9990
2 67208  69.9997 342.3536 0003653 259.9398 239.5383 15.52381619  4189
STARLINK-36226          
1 67209U 25304T   26004.83335648 -.00010965  00000+0 -17586-3 0  9992
2 67209  69.9996 342.3521 0003560 262.2648 239.0778 15.52499929  4182
STARLINK-36173          
1 67210U 25304U   26004.83335648 -.00062599  00000+0 -10220-2 0  9991
2 67210  69.9997 342.3494 0003231 267.4022 235.8576 15.52540629  4186
STARLINK-36280          
1 67211U 25304V   26004.83335648 -.00057299  00000+0 -93466-3 0  9997
2 67211  69.9996 342.3471 0003308 267.7744 237.3985 15.52539397  4181
STARLINK-36213          
1 67212U 25304W   26004.83335648 -.00037277  00000+0 -60573-3 0  9995
2 67212  69.9998 342.3446 0003180 266.6498 240.4388 15.52533371  4186
STARLINK-36199          
1 67213U 25304X   26004.83335648 -.00055737  00000+0 -90901-3 0  9995
2 67213  69.9994 342.3425 0003146 262.5753 246.4301 15.52537829  4184
STARLINK-36203          
1 67214U 25304Y   26004.83335648 -.00033680  00000+0 -54735-3 0  9994
2 67214  69.9997 342.3411 0003596 259.7912 251.1329 15.52501933  4187
STARLINK-36221          
1 67215U 25304Z   26004.83335648  .00192490  00000+0  30723-2 0  9998
2 67215  69.9996 342.3382 0003574 259.5139 253.3770 15.52373753  4180
STARLINK-36212          
1 67216U 25304AA  26004.83335648 -.00055698  00000+0 -90835-3 0  9990
2 67216  69.9994 342.3352 0003150 268.0077 246.7453 15.52538561  4186
STARLINK-36216          
1 67217U 25304AB  26004.83335648 -.00022809  00000+0 -36900-3 0  9992
2 67217  69.9995 342.3337 0003195 267.7799 248.8893 15.52525836  4189
