CCSDS_OMM_VERS = 2.0
CREATION_DATE  = 
ORIGINATOR     = 

OBJECT_NAME    = STARLINK-36056
OBJECT_ID      = 2025-304Q
CENTER_NAME    = EARTH
REF_FRAME      = TEME
TIME_SYSTEM    = UTC
MEAN_ELEMENT_THEORY = SGP/SGP4

EPOCH          = 2026-01-04T20:00:01.999872
MEAN_MOTION    = 15.52504596
ECCENTRICITY   = .0003654
INCLINATION    = 69.9999
RA_OF_ASC_NODE = 342.3594
ARG_OF_PERICENTER = 263.1333
MEAN_ANOMALY   = 232.4582

EPHEMERIS_TYPE = 0
CLASSIFICATION_TYPE = U
NORAD_CAT_ID   = 67206
ELEMENT_SET_NO = 999
REV_AT_EPOCH   = 415
BSTAR          = -.54796E-3
MEAN_MOTION_DOT = -.33721E-3
MEAN_MOTION_DDOT = 0

CCSDS_OMM_VERS = 2.0
CREATION_DATE  = 
ORIGINATOR     = 

OBJECT_NAME    = STARLINK-36225
OBJECT_ID      = 2025-304R
CENTER_NAME    = EARTH
REF_FRAME      = TEME
TIME_SYSTEM    = UTC
MEAN_ELEMENT_THEORY = SGP/SGP4

EPOCH          = 2026-01-04T20:00:01.999872
MEAN_MOTION    = 15.52538080
ECCENTRICITY   = .0003198
INCLINATION    = 69.9996
RA_OF_ASC_NODE = 342.3563
ARG_OF_PERICENTER = 264.7930
MEAN_ANOMALY   = 232.7173

EPHEMERIS_TYPE = 0
CLASSIFICATION_TYPE = U
NORAD_CAT_ID   = 67207
ELEMENT_SET_NO = 999
REV_AT_EPOCH   = 418
BSTAR          = -.95796E-3
MEAN_MOTION_DOT = -.58709E-3
MEAN_MOTION_DDOT = 0

CCSDS_OMM_VERS = 2.0
CREATION_DATE  = 
ORIGINATOR     = 

OBJECT_NAME    = STARLINK-36265
OBJECT_ID      = 2025-304S
CENTER_NAME    = EARTH
REF_FRAME      = TEME
TIME_SYSTEM    = UTC
MEAN_ELEMENT_THEORY = SGP/SGP4

EPOCH          = 2026-01-04T20:00:01.999872
MEAN_MOTION    = 15.52381619
ECCENTRICITY   = .0003653
INCLINATION    = 69.9997
RA_OF_ASC_NODE = 342.3536
ARG_OF_PERICENTER = 259.9398
MEAN_ANOMALY   = 239.5383

EPHEMERIS_TYPE = 0
CLASSIFICATION_TYPE = U
NORAD_CAT_ID   = 67208
ELEMENT_SET_NO = 999
REV_AT_EPOCH   = 418
BSTAR          = .27623E-2
MEAN_MOTION_DOT = .172668E-2
MEAN_MOTION_DDOT = 0

CCSDS_OMM_VERS = 2.0
CREATION_DATE  = 
ORIGINATOR     = 

OBJECT_NAME    = STARLINK-36226
OBJECT_ID      = 2025-304T
CENTER_NAME    = EARTH
REF_FRAME      = TEME
TIME_SYSTEM    = UTC
MEAN_ELEMENT_THEORY = SGP/SGP4

EPOCH          = 2026-01-04T20:00:01.999872
MEAN_MOTION    = 15.52499929
ECCENTRICITY   = .000356
INCLINATION    = 69.9996
RA_OF_ASC_NODE = 342.3521
ARG_OF_PERICENTER = 262.2648
MEAN_ANOMALY   = 239.0778

EPHEMERIS_TYPE = 0
CLASSIFICATION_TYPE = U
NORAD_CAT_ID   = 67209
ELEMENT_SET_NO = 999
REV_AT_EPOCH   = 418
BSTAR          = -.17586E-3
MEAN_MOTION_DOT = -.10965E-3
MEAN_MOTION_DDOT = 0

CCSDS_OMM_VERS = 2.0
CREATION_DATE  = 
ORIGINATOR     = 

OBJECT_NAME    = STARLINK-36173
OBJECT_ID      = 2025-304U
CENTER_NAME    = EARTH
REF_FRAME      = TEME
TIME_SYSTEM    = UTC
MEAN_ELEMENT_THEORY = SGP/SGP4

EPOCH          = 2026-01-04T20:00:01.999872
MEAN_MOTION    = 15.52540629
ECCENTRICITY   = .0003231
INCLINATION    = 69.9997
RA_OF_ASC_NODE = 342.3494
ARG_OF_PERICENTER = 267.4022
MEAN_ANOMALY   = 235.8576

EPHEMERIS_TYPE = 0
CLASSIFICATION_TYPE = U
NORAD_CAT_ID   = 67210
ELEMENT_SET_NO = 999
REV_AT_EPOCH   = 418
BSTAR          = -.1022E-2
MEAN_MOTION_DOT = -.62599E-3
MEAN_MOTION_DDOT = 0

CCSDS_OMM_VERS = 2.0
CREATION_DATE  = 
ORIGINATOR     = 

OBJECT_NAME    = STARLINK-36280
OBJECT_ID      = 2025-304V
CENTER_NAME    = EARTH
REF_FRAME      = TEME
TIME_SYSTEM    = UTC
MEAN_ELEMENT_THEORY = SGP/SGP4

EPOCH          = 2026-01-04T20:00:01.999872
MEAN_MOTION    = 15.52539397
ECCENTRICITY   = .0003308
INCLINATION    = 69.9996
RA_OF_ASC_NODE = 342.3471
ARG_OF_PERICENTER = 267.7744
MEAN_ANOMALY   = 237.3985

EPHEMERIS_TYPE = 0
CLASSIFICATION_TYPE = U
NORAD_CAT_ID   = 67211
ELEMENT_SET_NO = 999
REV_AT_EPOCH   = 418
BSTAR          = -.93466E-3
MEAN_MOTION_DOT = -.57299E-3
MEAN_MOTION_DDOT = 0

CCSDS_OMM_VERS = 2.0
CREATION_DATE  = 
ORIGINATOR     = 

OBJECT_NAME    = STARLINK-36213
OBJECT_ID      = 2025-304W
CENTER_NAME    = EARTH
REF_FRAME      = TEME
TIME_SYSTEM    = UTC
MEAN_ELEMENT_THEORY = SGP/SGP4

EPOCH          = 2026-01-04T20:00:01.999872
MEAN_MOTION    = 15.52533371
ECCENTRICITY   = .000318
INCLINATION    = 69.9998
RA_OF_ASC_NODE = 342.3446
ARG_OF_PERICENTER = 266.6498
MEAN_ANOMALY   = 240.4388

EPHEMERIS_TYPE = 0
CLASSIFICATION_TYPE = U
NORAD_CAT_ID   = 67212
ELEMENT_SET_NO = 999
REV_AT_EPOCH   = 418
BSTAR          = -.60573E-3
MEAN_MOTION_DOT = -.37277E-3
MEAN_MOTION_DDOT = 0

CCSDS_OMM_VERS = 2.0
CREATION_DATE  = 
ORIGINATOR     = 

OBJECT_NAME    = STARLINK-36199
OBJECT_ID      = 2025-304X
CENTER_NAME    = EARTH
REF_FRAME      = TEME
TIME_SYSTEM    = UTC
MEAN_ELEMENT_THEORY = SGP/SGP4

EPOCH          = 2026-01-04T20:00:01.999872
MEAN_MOTION    = 15.52537829
ECCENTRICITY   = .0003146
INCLINATION    = 69.9994
RA_OF_ASC_NODE = 342.3425
ARG_OF_PERICENTER = 262.5753
MEAN_ANOMALY   = 246.4301

EPHEMERIS_TYPE = 0
CLASSIFICATION_TYPE = U
NORAD_CAT_ID   = 67213
ELEMENT_SET_NO = 999
REV_AT_EPOCH   = 418
BSTAR          = -.90901E-3
MEAN_MOTION_DOT = -.55737E-3
MEAN_MOTION_DDOT = 0

CCSDS_OMM_VERS = 2.0
CREATION_DATE  = 
ORIGINATOR     = 

OBJECT_NAME    = STARLINK-36203
OBJECT_ID      = 2025-304Y
CENTER_NAME    = EARTH
REF_FRAME      = TEME
TIME_SYSTEM    = UTC
MEAN_ELEMENT_THEORY = SGP/SGP4

EPOCH          = 2026-01-04T20:00:01.999872
MEAN_MOTION    = 15.52501933
ECCENTRICITY   = .0003596
INCLINATION    = 69.9997
RA_OF_ASC_NODE = 342.3411
ARG_OF_PERICENTER = 259.7912
MEAN_ANOMALY   = 251.1329

EPHEMERIS_TYPE = 0
CLASSIFICATION_TYPE = U
NORAD_CAT_ID   = 67214
ELEMENT_SET_NO = 999
REV_AT_EPOCH   = 418
BSTAR          = -.54735E-3
MEAN_MOTION_DOT = -.3368E-3
MEAN_MOTION_DDOT = 0

CCSDS_OMM_VERS = 2.0
CREATION_DATE  = 
ORIGINATOR     = 

OBJECT_NAME    = STARLINK-36221
OBJECT_ID      = 2025-304Z
CENTER_NAME    = EARTH
REF_FRAME      = TEME
TIME_SYSTEM    = UTC
MEAN_ELEMENT_THEORY = SGP/SGP4

EPOCH          = 2026-01-04T20:00:01.999872
MEAN_MOTION    = 15.52373753
ECCENTRICITY   = .0003574
INCLINATION    = 69.9996
RA_OF_ASC_NODE = 342.3382
ARG_OF_PERICENTER = 259.5139
MEAN_ANOMALY   = 253.3770

EPHEMERIS_TYPE = 0
CLASSIFICATION_TYPE = U
NORAD_CAT_ID   = 67215
ELEMENT_SET_NO = 999
REV_AT_EPOCH   = 418
BSTAR          = .30723E-2
MEAN_MOTION_DOT = .19249E-2
MEAN_MOTION_DDOT = 0

CCSDS_OMM_VERS = 2.0
CREATION_DATE  = 
ORIGINATOR     = 

OBJECT_NAME    = STARLINK-36212
OBJECT_ID      = 2025-304AA
CENTER_NAME    = EARTH
REF_FRAME      = TEME
TIME_SYSTEM    = UTC
MEAN_ELEMENT_THEORY = SGP/SGP4

EPOCH          = 2026-01-04T20:00:01.999872
MEAN_MOTION    = 15.52538561
ECCENTRICITY   = .000315
INCLINATION    = 69.9994
RA_OF_ASC_NODE = 342.3352
ARG_OF_PERICENTER = 268.0077
MEAN_ANOMALY   = 246.7453

EPHEMERIS_TYPE = 0
CLASSIFICATION_TYPE = U
NORAD_CAT_ID   = 67216
ELEMENT_SET_NO = 999
REV_AT_EPOCH   = 418
BSTAR          = -.90835E-3
MEAN_MOTION_DOT = -.55698E-3
MEAN_MOTION_DDOT = 0

CCSDS_OMM_VERS = 2.0
CREATION_DATE  = 
ORIGINATOR     = 

OBJECT_NAME    = STARLINK-36216
OBJECT_ID      = 2025-304AB
CENTER_NAME    = EARTH
REF_FRAME      = TEME
TIME_SYSTEM    = UTC
MEAN_ELEMENT_THEORY = SGP/SGP4

EPOCH          = 2026-01-04T20:00:01.999872
MEAN_MOTION    = 15.52525836
ECCENTRICITY   = .0003195
INCLINATION    = 69.9995
RA_OF_ASC_NODE = 342.3337
ARG_OF_PERICENTER = 267.7799
MEAN_ANOMALY   = 248.8893

EPHEMERIS_TYPE = 0
CLASSIFICATION_TYPE = U
NORAD_CAT_ID   = 67217
ELEMENT_SET_NO = 999
REV_AT_EPOCH   = 418
BSTAR          = -.369E-3
MEAN_MOTION_DOT = -.22809E-3
MEAN_MOTION_DDOT = 0

